      2.10          N: GNSS NAV DATA                        RINEX VERSION / TYPE
fic2rin                                 12/19/2019 00:19:34 PGM / RUN BY / DATE
                                                            END OF HEADER
 1 19 12 18 12  0  0.0-2.335971221328e-04-1.227817847393e-11 0.000000000000e+00
    9.700000000000e+01-6.781250000000e+00 4.332680473533e-09-1.970438729299e+00
   -4.358589649200e-07 9.202804300003e-03 4.423782229424e-06 5.153641447067e+03
    3.024000000000e+05 1.341104507446e-07-3.285876053470e-01-3.725290298462e-08
    9.784491107100e-01 3.018437500000e+02 7.603132159716e-01-8.085693944465e-09
    2.903692379014e-10 1.000000000000e+00 2.084000000000e+03 0.000000000000e+00
    2.400000000000e+00 0.000000000000e+00 5.587935447693e-09 9.700000000000e+01
    2.952000000000e+05 4.000000000000e+00
 3 19 12 18 12  0  0.0-5.512451753020e-05-6.821210263297e-12 0.000000000000e+00
    2.000000000000e+01-7.859375000000e+01 4.488401245642e-09-3.140916680107e+00
   -4.148110747337e-06 2.616680576466e-03 7.638707756996e-06 5.153655340195e+03
    3.024000000000e+05-7.823109626770e-08 7.124441240660e-01-1.061707735062e-07
    9.644244705732e-01 2.316250000000e+02 7.797847814176e-01-8.068193215490e-09
   -1.107188976008e-10 1.000000000000e+00 2.084000000000e+03 0.000000000000e+00
    2.400000000000e+00 0.000000000000e+00 2.328306436539e-09 2.000000000000e+01
    2.952000000000e+05 4.000000000000e+00
 2 19 12 18 12  0  0.0-3.686849959195e-04-7.389644451905e-12 0.000000000000e+00
    8.000000000000e+01 7.656250000000e+00 4.855559396396e-09-1.676343973198e+00
    8.977949619293e-07 1.958049880341e-02 3.447756171227e-06 5.153596433640e+03
    3.024000000000e+05 2.682209014893e-07-4.015302704903e-01 3.352761268616e-07
    9.574800306351e-01 3.088750000000e+02-1.688449869000e+00-8.336418673871e-09
    2.525105180766e-10 1.000000000000e+00 2.084000000000e+03 0.000000000000e+00
    2.400000000000e+00 0.000000000000e+00-1.769512891769e-08 8.000000000000e+01
    2.952000000000e+05 4.000000000000e+00
 5 19 12 18 12  0  0.0-4.859641194344e-06-5.684341886081e-13 0.000000000000e+00
    9.600000000000e+01-9.343750000000e+01 4.935562728856e-09 8.930682113500e-01
   -4.619359970093e-06 5.813224939629e-03 7.942318916321e-06 5.153568349838e+03
    3.024000000000e+05 0.000000000000e+00 6.827731478993e-01 9.872019290924e-08
    9.513287234370e-01 2.218125000000e+02 8.035290317180e-01-8.398564119621e-09
   -2.225092684042e-10 1.000000000000e+00 2.084000000000e+03 0.000000000000e+00
    2.400000000000e+00 0.000000000000e+00-1.117587089539e-08 9.600000000000e+01
    2.952000000000e+05 4.000000000000e+00
 7 19 12 18 12  0  0.0-1.725922338665e-04-8.185452315956e-12 0.000000000000e+00
    4.800000000000e+01 4.062500000000e+01 4.833415616876e-09-2.671360452680e+00
    1.957640051842e-06 1.320438028779e-02 6.269663572311e-06 5.153708318710e+03
    3.024000000000e+05 7.450580596924e-08 2.819087345206e+00-1.825392246246e-07
    9.542980316692e-01 2.545625000000e+02-2.420566354259e+00-8.069979004161e-09
    5.464513333200e-11 1.000000000000e+00 2.084000000000e+03 0.000000000000e+00
    2.400000000000e+00 0.000000000000e+00-1.117587089539e-08 4.800000000000e+01
    2.952000000000e+05 4.000000000000e+00
 8 19 12 18 12  0  0.0-1.716753467917e-05-1.364242052659e-12 0.000000000000e+00
    2.500000000000e+01 3.700000000000e+01 4.176602543689e-09 4.349015370175e-01
    1.955777406693e-06 4.871051991358e-03 8.126720786095e-06 5.153603677750e+03
    3.024000000000e+05 8.754432201385e-08-1.397108703620e+00-5.029141902924e-08
    9.699647549254e-01 2.270312500000e+02-2.279753866499e-01-8.051406801982e-09
    9.714690370133e-11 1.000000000000e+00 2.084000000000e+03 0.000000000000e+00
    2.400000000000e+00 0.000000000000e+00 5.122274160385e-09 2.500000000000e+01
    2.952000000000e+05 4.000000000000e+00
 6 19 12 18 12  0  0.0-1.570493914187e-04-1.102762325900e-11 0.000000000000e+00
    7.300000000000e+01-7.656250000000e+00 4.489472718845e-09-1.612155166997e+00
   -2.644956111908e-07 1.687699463218e-03 4.185363650322e-06 5.153713943481e+03
    3.024000000000e+05-2.793967723846e-08-3.368484843029e-01-3.725290298462e-08
    9.780484232998e-01 3.098125000000e+02-1.200102188205e+00-8.226771249473e-09
    2.014369620866e-10 1.000000000000e+00 2.084000000000e+03 0.000000000000e+00
    2.400000000000e+00 0.000000000000e+00 4.656612873077e-09 7.300000000000e+01
    2.952000000000e+05 4.000000000000e+00
22 19 12 18 12  0  0.0-7.781297899783e-04-1.932676241267e-12 0.000000000000e+00
    2.700000000000e+01-7.950000000000e+01 5.419868616426e-09-7.292093056946e-01
   -4.125759005547e-06 6.914322730154e-03 6.983056664467e-06 5.153624656677e+03
    3.024000000000e+05-9.499490261078e-08 6.318727580709e-01-8.940696716309e-08
    9.292425927639e-01 2.276875000000e+02-1.250679435521e+00-8.706791244232e-09
   -2.392956819114e-11 1.000000000000e+00 2.084000000000e+03 0.000000000000e+00
    2.400000000000e+00 0.000000000000e+00-1.816079020500e-08 2.700000000000e+01
    2.952000000000e+05 4.000000000000e+00
15 19 12 18 12  0  0.0-2.648425288498e-04 2.614797267597e-12 0.000000000000e+00
    1.600000000000e+01-1.018750000000e+01 5.336293706624e-09-6.766835831588e-01
   -4.582107067108e-07 1.210417482071e-02 1.114793121815e-05 5.153610309601e+03
    3.024000000000e+05 4.097819328308e-08 1.658781036008e+00 2.514570951462e-07
    9.276856441622e-01 1.455000000000e+02 8.508547914602e-01-8.512140279095e-09
    1.153619481453e-10 1.000000000000e+00 2.084000000000e+03 0.000000000000e+00
    2.400000000000e+00 0.000000000000e+00-1.117587089539e-08 1.600000000000e+01
    2.952000000000e+05 4.000000000000e+00
11 19 12 18 12  0  0.0-4.158890806139e-04 1.102762325900e-11 0.000000000000e+00
    1.600000000000e+01 4.012500000000e+01 5.553802766749e-09-2.818041503609e+00
    2.142041921616e-06 1.626260287594e-02 4.870817065239e-06 5.153757577896e+03
    3.024000000000e+05 6.891787052155e-08-7.926246144424e-01 2.309679985046e-07
    9.115134505254e-01 2.541250000000e+02 1.978208003412e+00-8.508568701753e-09
    2.875119760278e-10 1.000000000000e+00 2.084000000000e+03 0.000000000000e+00
    2.400000000000e+00 0.000000000000e+00-1.210719347000e-08 1.600000000000e+01
    2.952000000000e+05 4.000000000000e+00
 9 19 12 18 12  0  0.0-1.110807061195e-04-9.322320693173e-12 0.000000000000e+00
    7.500000000000e+01 2.656250000000e+00 4.666265797272e-09 7.224129920637e-01
    2.793967723846e-08 1.711754710414e-03 1.060031354427e-05 5.153543685913e+03
    3.024000000000e+05-3.352761268616e-08 1.744106941352e+00-4.097819328308e-08
    9.521742110893e-01 1.705625000000e+02 1.682602036843e+00-8.035334703943e-09
    9.464679956196e-11 1.000000000000e+00 2.084000000000e+03 0.000000000000e+00
    2.400000000000e+00 0.000000000000e+00 1.396983861923e-09 7.500000000000e+01
    2.952000000000e+05 4.000000000000e+00
14 19 12 18 12  0  0.0-4.412326961756e-05 2.273736754432e-12 0.000000000000e+00
    9.600000000000e+01-3.531250000000e+00 4.668765901411e-09-9.307899811960e-02
   -8.940696716309e-08 1.072917855345e-02 1.018121838570e-05 5.153597360611e+03
    3.024000000000e+05-5.774199962616e-08 1.838696961223e+00 8.381903171539e-08
    9.600541476402e-01 1.858437500000e+02-1.930680069854e+00-8.206770416358e-09
    1.275053111080e-10 1.000000000000e+00 2.084000000000e+03 0.000000000000e+00
    2.400000000000e+00 0.000000000000e+00-9.778887033463e-09 9.600000000000e+01
    2.952000000000e+05 4.000000000000e+00
13 19 12 18 12  0  0.0-2.587912604213e-05 2.501110429876e-12 0.000000000000e+00
    7.700000000000e+01 1.500000000000e+01 4.418398329740e-09-6.610504850747e-01
    7.487833499908e-07 4.157244344242e-03 1.061893999577e-05 5.153666513443e+03
    3.024000000000e+05-3.166496753693e-08 1.884539815036e+00 8.568167686462e-08
    9.674827022808e-01 1.755000000000e+02 1.180537914714e+00-7.981761043814e-09
    2.032227507576e-10 1.000000000000e+00 2.084000000000e+03 0.000000000000e+00
    2.400000000000e+00 0.000000000000e+00-1.117587089539e-08 7.700000000000e+01
    2.952000000000e+05 4.000000000000e+00
12 19 12 18 12  0  0.0 1.719351857901e-04-3.979039320257e-12 0.000000000000e+00
    7.400000000000e+01 1.050000000000e+01 3.959093483564e-09 3.014774691798e+00
    5.345791578293e-07 7.711175247096e-03 8.787959814072e-06 5.153779518127e+03
    3.024000000000e+05 7.823109626770e-08-2.360814341599e+00-6.332993507385e-08
    9.804694430021e-01 2.181562500000e+02 1.095565045150e+00-7.698177802862e-09
   -3.714440435639e-10 1.000000000000e+00 2.084000000000e+03 0.000000000000e+00
    2.400000000000e+00 0.000000000000e+00-1.257285475731e-08 7.400000000000e+01
    2.952000000000e+05 4.000000000000e+00
31 19 12 18 12  0  0.0-1.060497015715e-05-2.501110429876e-12 0.000000000000e+00
    1.400000000000e+01 4.156250000000e+01 4.779127641278e-09-3.014049997292e+00
    2.088025212288e-06 9.628403931856e-03 6.951391696930e-06 5.153746669769e+03
    3.024000000000e+05-1.341104507446e-07 2.833977806094e+00-3.725290298462e-09
    9.587930083887e-01 2.466875000000e+02 8.541183276281e-02-8.082479524857e-09
   -2.142946405177e-12 1.000000000000e+00 2.084000000000e+03 0.000000000000e+00
    2.400000000000e+00 0.000000000000e+00-1.350417733192e-08 1.400000000000e+01
    2.952000000000e+05 4.000000000000e+00
30 19 12 18 12  0  0.0-1.086699776351e-04-8.640199666843e-12 0.000000000000e+00
    1.600000000000e+01 3.478125000000e+01 5.263790686582e-09-2.694822462195e+00
    1.739710569382e-06 4.155912902206e-03 5.982816219330e-06 5.153709175110e+03
    3.024000000000e+05-1.862645149231e-08 2.844192889056e+00-4.097819328308e-08
    9.396824750326e-01 2.534062500000e+02-2.920534635579e+00-8.404992958836e-09
   -1.750072897561e-11 1.000000000000e+00 2.084000000000e+03 0.000000000000e+00
    2.400000000000e+00 0.000000000000e+00 3.725290298462e-09 1.600000000000e+01
    2.952000000000e+05 4.000000000000e+00
